NORAD_CAT_ID,OBJECT_NAME,OBJECT_TYPE,EPOCH,MEAN_MOTION,ECCENTRICITY,INCLINATION,RA_OF_ASC_NODE,ARG_OF_PERICENTER,MEAN_ANOMALY,BSTAR,MEAN_MOTION_DOT,MEAN_MOTION_DDOT,TLE_LINE0,TLE_LINE1,TLE_LINE2,SEMIMAJOR_AXIS,PERIOD,APOGEE,PERIGEE,DECAYED
52859.0,STARLINK-4196,PAYLOAD,2024-07-23 02:33:25,15.0883901,0.0001191,53.2154,173.3084,66.2216,293.8901,6.4009e-05,7.31e-06,0.0,0 STARLINK-4196,1 52859U 22062AF  24205.10654726  .00000731  00000-0  64009-4 0  9999,2 52859  53.2154 173.3084 0001191  66.2216 293.8901 15.08839010116658,6917.883,95.438,540.572,538.924,0.0
52859.0,STARLINK-4196,PAYLOAD,2024-07-23 07:19:34,15.08852758,0.0001435,53.2172,172.4135,90.5574,269.5583,0.00013596,1.877e-05,0.0,0 STARLINK-4196,1 52859U 22062AF  24205.30525726  .00001877  00000-0  13596-3 0  9994,2 52859  53.2172 172.4135 0001435  90.5574 269.5583 15.08852758116686,6917.841,95.437,540.699,538.714,0.0
52859.0,STARLINK-4196,PAYLOAD,2024-07-23 15:16:29,15.08861104,0.0001258,53.2165,170.9265,108.6808,251.4321,0.00019473,2.814e-05,0.0,0 STARLINK-4196,1 52859U 22062AF  24205.63644772  .00002814  00000-0  19473-3 0  9995,2 52859  53.2165 170.9265 0001258 108.6808 251.4321 15.08861104116730,6917.816,95.436,540.551,538.811,0.0
52859.0,STARLINK-4196,PAYLOAD,2024-07-24 03:59:36,15.08829741,0.0001409,53.2159,168.5492,97.322,262.7933,0.00013727,1.897e-05,0.0,0 STARLINK-4196,1 52859U 22062AF  24206.16639396  .00001897  00000-0  13727-3 0  9996,2 52859  53.2159 168.5492 0001409  97.3220 262.7933 15.08829741116812,6917.912,95.438,540.751,538.802,0.0
52859.0,STARLINK-4196,PAYLOAD,2024-07-24 21:28:50,15.08845853,0.0001474,53.2168,165.2741,111.9393,248.1756,2.641e-05,1.32e-06,0.0,0 STARLINK-4196,1 52859U 22062AF  24206.89502650  .00000132  00000-0  26410-4 0  9993,2 52859  53.2168 165.2741 0001474 111.9393 248.1756 15.08845853116924,6917.862,95.437,540.747,538.708,0.0
52859.0,STARLINK-4196,PAYLOAD,2024-07-25 03:50:22,15.08850061,0.0001394,53.2159,164.0897,99.1543,260.9607,0.0002051,2.979e-05,0.0,0 STARLINK-4196,1 52859U 22062AF  24207.15998499  .00002979  00000-0  20510-3 0  9998,2 52859  53.2159 164.0897 0001394  99.1543 260.9607 15.08850061116472,6917.85,95.437,540.679,538.75,0.0
52859.0,STARLINK-4196,PAYLOAD,2024-07-25 07:01:08,15.08852318,0.0001363,53.2158,163.4946,100.4835,259.6311,0.00027022,4.017e-05,0.0,0 STARLINK-4196,1 52859U 22062AF  24207.29246397  .00004017  00000-0  27022-3 0  9996,2 52859  53.2158 163.4946 0001363 100.4835 259.6311 15.08852318116491,6917.843,95.437,540.651,538.765,0.0
52859.0,STARLINK-4196,PAYLOAD,2024-07-26 03:41:09,15.08842774,0.0001348,53.2153,159.6282,96.4456,263.6689,0.00017858,2.556e-05,0.0,0 STARLINK-4196,1 52859U 22062AF  24208.15358764  .00002556  00000-0  17858-3 0  9996,2 52859  53.2153 159.6282 0001348  96.4456 263.6689 15.08842774117110,6917.872,95.437,540.669,538.804,0.0
52859.0,STARLINK-4196,PAYLOAD,2024-07-26 06:51:56,15.08842441,0.0001383,53.2156,159.0339,97.8144,262.3005,0.00014757,2.062e-05,0.0,0 STARLINK-4196,1 52859U 22062AF  24208.28606752  .00002062  00000-0  14757-3 0  9990,2 52859  53.2156 159.0339 0001383  97.8144 262.3005 15.08842441116644,6917.873,95.437,540.695,538.781,0.0
52859.0,STARLINK-4196,PAYLOAD,2024-07-26 13:13:28,15.08852608,0.0001434,53.2163,157.8477,101.8905,258.2248,0.00028518,4.255e-05,0.0,0 STARLINK-4196,1 52859U 22062AF  24208.55102225  .00004255  00000-0  28518-3 0  9992,2 52859  53.2163 157.8477 0001434 101.8905 258.2248 15.08852608117177,6917.842,95.437,540.699,538.715,0.0
52859.0,STARLINK-4196,PAYLOAD,2024-07-27 03:31:56,15.08844227,0.0001574,53.2179,155.172,99.9882,260.1287,1.8349e-05,4e-08,0.0,0 STARLINK-4196,1 52859U 22062AF  24209.14718502  .00000004  00000-0  18349-4 0  9999,2 52859  53.2179 155.1720 0001574  99.9882 260.1287 15.08844227117265,6917.867,95.437,540.821,538.644,0.0
52859.0,STARLINK-4196,PAYLOAD,2024-07-27 19:25:47,15.08843351,0.0001413,53.2181,152.1992,100.0223,260.0928,7.746e-05,9.45e-06,0.0,0 STARLINK-4196,1 52859U 22062AF  24209.80958234  .00000945  00000-0  77460-4 0  9993,2 52859  53.2181 152.1992 0001413 100.0223 260.0928 15.08843351116875,6917.87,95.437,540.713,538.758,0.0
52859.0,STARLINK-4196,PAYLOAD,2024-07-28 12:55:02,15.08843688,0.0001228,53.2161,148.9249,85.3337,274.7795,7.8019e-05,9.54e-06,0.0,0 STARLINK-4196,1 52859U 22062AF  24210.53822296  .00000954  00000-0  78019-4 0  9994,2 52859  53.2161 148.9249 0001228  85.3337 274.7795 15.08843688117470,6917.869,95.437,540.584,538.885,0.0
52859.0,STARLINK-4196,PAYLOAD,2024-07-29 03:13:31,15.08834878,0.0001316,53.2171,146.2485,80.8836,279.2305,8.4235e-05,1.053e-05,0.0,0 STARLINK-4196,1 52859U 22062AF  24211.13439386  .00001053  00000-0  84235-4 0  9993,2 52859  53.2171 146.2485 0001316  80.8836 279.2305 15.08834878117564,6917.896,95.438,540.671,538.851,0.0
52859.0,STARLINK-4196,PAYLOAD,2024-07-29 12:45:49,15.08846711,0.0001533,53.2159,144.4631,78.2318,281.8846,0.00020833,3.03e-05,0.0,0 STARLINK-4196,1 52859U 22062AF  24211.53182516  .00003030  00000-0  20833-3 0  9997,2 52859  53.2159 144.4631 0001533  78.2318 281.8846 15.08846711117625,6917.86,95.437,540.785,538.664,0.0
52859.0,STARLINK-4196,PAYLOAD,2024-07-29 19:07:23,15.08828167,0.0001398,53.2163,143.2752,86.7521,273.3631,-5.883e-05,-1.224e-05,0.0,0 STARLINK-4196,1 52859U 22062AF  24211.79679446 -.00001224  00000-0 -58830-4 0  9992,2 52859  53.2163 143.2752 0001398  86.7521 273.3631 15.08828167117667,6917.917,95.438,540.749,538.814,0.0
52859.0,STARLINK-4196,PAYLOAD,2024-07-30 12:36:36,15.08851136,0.0001376,53.2163,140.0053,87.3367,272.7783,0.00027653,4.117e-05,0.0,0 STARLINK-4196,1 52859U 22062AF  24212.52542617  .00004117  00000-0  27653-3 0  9993,2 52859  53.2163 140.0053 0001376  87.3367 272.7783 15.08851136117772,6917.846,95.437,540.663,538.759,0.0
52859.0,STARLINK-4196,PAYLOAD,2024-07-30 18:58:09,15.08846212,0.0001357,53.215,138.8178,83.0172,277.0974,0.0003279,4.935e-05,0.0,0 STARLINK-4196,1 52859U 22062AF  24212.79038928  .00004935  00000-0  32790-3 0  9993,2 52859  53.2150 138.8178 0001357  83.0172 277.0974 15.08846212117327,6917.861,95.437,540.665,538.788,0.0
52859.0,STARLINK-4196,PAYLOAD,2024-07-31 12:27:23,15.0885658,0.0001447,53.2168,135.5437,102.85,257.2654,0.00025897,3.838e-05,0.0,0 STARLINK-4196,1 52859U 22062AF  24213.51902075  .00003838  00000-0  25897-3 0  9998,2 52859  53.2168 135.5437 0001447 102.8500 257.2654 15.08856580117439,6917.83,95.437,540.696,538.694,0.0
52859.0,STARLINK-4196,PAYLOAD,2024-07-31 18:48:56,15.08843949,0.000274,53.2164,134.3558,88.8731,271.2575,0.00026333,3.906e-05,0.0,0 STARLINK-4196,1 52859U 22062AF  24213.78399267  .00003906  00000-0  26333-3 0  9992,2 52859  53.2164 134.3558 0002740  88.8731 271.2575 15.08843949117963,6917.868,95.437,541.629,537.838,0.0
52859.0,STARLINK-4196,PAYLOAD,2024-07-31 21:59:43,15.08830231,0.0001508,53.2161,133.7609,97.5978,262.5186,5.8392e-05,6.41e-06,0.0,0 STARLINK-4196,1 52859U 22062AF  24213.91647686  .00000641  00000-0  58392-4 0  9992,2 52859  53.2161 133.7609 0001508  97.5978 262.5186 15.08830231117490,6917.91,95.438,540.818,538.732,0.0
52859.0,STARLINK-4196,PAYLOAD,2024-08-01 01:10:29,15.0883841,0.000157,53.2156,133.1649,104.0244,256.0923,5.7907e-05,6.34e-06,0.0,0 STARLINK-4196,1 52859U 22062AF  24214.04895113  .00000634  00000-0  57907-4 0  9990,2 52859  53.2156 133.1649 0001570 104.0244 256.0923 15.08838410118003,6917.885,95.438,540.836,538.664,0.0
52859.0,STARLINK-4196,PAYLOAD,2024-08-01 21:50:30,15.0884999,0.0001516,53.2157,129.2993,109.9662,250.1493,0.0010462,0.00016406,0.0,0 STARLINK-4196,1 52859U 22062AF  24214.91007284  .00016406  00000-0  10462-2 0  9997,2 52859  53.2157 129.2993 0001516 109.9662 250.1493 15.08849990117641,6917.85,95.437,540.764,538.666,0.0
52859.0,STARLINK-4196,PAYLOAD,2024-08-02 01:01:16,15.08851121,0.0001424,53.2163,128.7063,104.0961,256.0189,0.00091807,0.00014358,0.0,0 STARLINK-4196,1 52859U 22062AF  24215.04255259  .00014358  00000-0  91807-3 0  9996,2 52859  53.2163 128.7063 0001424 104.0961 256.0189 15.08851121118159,6917.846,95.437,540.696,538.726,0.0
52859.0,STARLINK-4196,PAYLOAD,2024-08-02 21:41:17,15.08842288,0.0001333,53.2169,124.8392,106.2968,253.8171,0.00060741,9.393e-05,0.0,0 STARLINK-4196,1 52859U 22062AF  24215.90367847  .00009393  00000-0  60741-3 0  9994,2 52859  53.2169 124.8392 0001333 106.2968 253.8171 15.08842288118281,6917.873,95.437,540.661,538.816,0.0
52859.0,STARLINK-4196,PAYLOAD,2024-08-03 04:02:50,15.08820894,0.0001201,53.2165,123.6503,84.1076,276.0053,6.1047e-05,6.83e-06,0.0,0 STARLINK-4196,1 52859U 22062AF  24216.16864362  .00000683  00000-0  61047-4 0  9991,2 52859  53.2165 123.6503 0001201  84.1076 276.0053 15.08820894118326,6917.939,95.439,540.635,538.973,0.0
52859.0,STARLINK-4196,PAYLOAD,2024-08-03 10:24:23,15.08825421,0.000117,53.2167,122.4622,85.0953,275.0173,0.00055292,8.519e-05,0.0,0 STARLINK-4196,1 52859U 22062AF  24216.43360695  .00008519  00000-0  55292-3 0  9991,2 52859  53.2167 122.4622 0001170  85.0953 275.0173 15.08825421117878,6917.925,95.438,540.599,538.981,0.0
52859.0,STARLINK-4196,PAYLOAD,2024-08-03 21:32:05,15.08840823,0.0001203,53.2172,120.3799,83.8006,276.3124,0.00075463,0.00011743,0.0,0 STARLINK-4196,1 52859U 22062AF  24216.89728810  .00011743  00000-0  75463-3 0  9993,2 52859  53.2172 120.3799 0001203  83.8006 276.3124 15.08840823117949,6917.878,95.438,540.575,538.911,0.0
52859.0,STARLINK-4196,PAYLOAD,2024-08-04 10:15:09,15.08874833,0.0001465,53.2175,118.0037,99.6159,260.4998,0.0014028,0.00022129,0.0,0 STARLINK-4196,1 52859U 22062AF  24217.42719880  .00022129  00000-0  14028-2 0  9999,2 52859  53.2175 118.0037 0001465  99.6159 260.4998 15.08874833118510,6917.774,95.435,540.652,538.625,0.0
52859.0,STARLINK-4196,PAYLOAD,2024-08-04 21:22:51,15.08862649,0.0001382,53.2177,115.9219,96.7947,263.3203,0.00085026,0.00013278,0.0,0 STARLINK-4196,1 52859U 22062AF  24217.89087753  .00013278  00000-0  85026-3 0  9999,2 52859  53.2177 115.9219 0001382  96.7947 263.3203 15.08862649118581,6917.811,95.436,540.632,538.72,0.0
